[{"OBJECT_NAME":"STARLINK-34689","OBJECT_ID":"2025-158T","EPOCH":"2026-03-09T15:10:27.929280","MEAN_MOTION":15.05674471,"ECCENTRICITY":0.0002492,"INCLINATION":97.6025,"RA_OF_ASC_NODE":293.9735,"ARG_OF_PERICENTER":95.2979,"MEAN_ANOMALY":264.8532,"EPHEMERIS_TYPE":0,"CLASSIFICATION_TYPE":"U","NORAD_CAT_ID":64949,"ELEMENT_SET_NO":999,"REV_AT_EPOCH":3534,"BSTAR":0.00044821,"MEAN_MOTION_DOT":6.417e-5,"MEAN_MOTION_DDOT":0},{"OBJECT_NAME":"FREGAT DEB","OBJECT_ID":"2011-037AS","EPOCH":"2026-03-06T16:28:07.273920","MEAN_MOTION":11.74448638,"ECCENTRICITY":0.16797662,"INCLINATION":51.4624,"RA_OF_ASC_NODE":199.6391,"ARG_OF_PERICENTER":296.1327,"MEAN_ANOMALY":47.6346,"EPHEMERIS_TYPE":0,"CLASSIFICATION_TYPE":"U","NORAD_CAT_ID":45650,"ELEMENT_SET_NO":999,"REV_AT_EPOCH":24313,"BSTAR":0.0011639207,"MEAN_MOTION_DOT":6.107e-5,"MEAN_MOTION_DDOT":0}]
